TDRS 11                 
1 39070U 13004A   26066.31080122  .00000080  00000+0  00000+0 0  9990
2 39070   3.3716  29.4083 0004028 351.8060  81.3971  1.00277594 45670
TDRS 12                 
1 39504U 14004A   26066.38406661 -.00000271  00000+0  00000+0 0  9993
2 39504   3.8788  17.2955 0003845 268.4615 336.6742  1.00269042 43257
GPM-CORE                
1 39574U 14009C   26066.63844432  .00009981  00000+0  21746-3 0  9995
2 39574  64.9726 288.3589 0012407 265.3726  94.5997 15.44673161682122
MMS 1                   
1 40482U 15011A   26066.66668981 -.00001960  00000+0  00000+0 0  9991
2 40482  70.8039 350.1874 8413516 165.3182  23.3942  0.28288532  1348
MMS 2                   
1 40483U 15011B   26066.66668981 -.00001961  00000+0  00000+0 0  9993
2 40483  70.8045 350.1889 8414442 165.3260  23.3722  0.28284467  1347
MMS 3                   
1 40484U 15011C   26066.66668981 -.00001960  00000+0  00000+0 0  9993
2 40484  70.8065 350.1942 8413531 165.3184  23.3861  0.28288468  1342
MMS 4                   
1 40485U 15011D   26066.66668981 -.00001960  00000+0  00000+0 0  9994
2 40485  70.8049 350.1888 8413229 165.3275  23.3661  0.28284380  1346
TDRS 13                 
1 42915U 17047A   26066.29244964 -.00000101  00000+0  00000+0 0  9991
2 42915   3.4300   0.1345 0010548  98.6431 160.0313  1.00272357 31325
NOAA 20 (JPSS-1)        
1 43013U 17073A   26066.57286887  .00000144  00000+0  89001-4 0  9990
2 43013  98.7690   6.9811 0001129 140.6553 219.4706 14.19535495430051
