[{"OBJECT_NAME":"TDRS 11","OBJECT_ID":"2013-004A","EPOCH":"2026-03-07T07:27:33.225408","MEAN_MOTION":1.00277594,"ECCENTRICITY":0.00040282,"INCLINATION":3.3716,"RA_OF_ASC_NODE":29.4083,"ARG_OF_PERICENTER":351.806,"MEAN_ANOMALY":81.3971,"EPHEMERIS_TYPE":0,"CLASSIFICATION_TYPE":"U","NORAD_CAT_ID":39070,"ELEMENT_SET_NO":999,"REV_AT_EPOCH":4567,"BSTAR":0,"MEAN_MOTION_DOT":8.0e-7,"MEAN_MOTION_DDOT":0},{"OBJECT_NAME":"TDRS 12","OBJECT_ID":"2014-004A","EPOCH":"2026-03-07T09:13:03.355104","MEAN_MOTION":1.00269042,"ECCENTRICITY":0.00038454,"INCLINATION":3.8788,"RA_OF_ASC_NODE":17.2955,"ARG_OF_PERICENTER":268.4615,"MEAN_ANOMALY":336.6742,"EPHEMERIS_TYPE":0,"CLASSIFICATION_TYPE":"U","NORAD_CAT_ID":39504,"ELEMENT_SET_NO":999,"REV_AT_EPOCH":4325,"BSTAR":0,"MEAN_MOTION_DOT":-2.71e-6,"MEAN_MOTION_DDOT":0},{"OBJECT_NAME":"GPM-CORE","OBJECT_ID":"2014-009C","EPOCH":"2026-03-07T15:19:21.589248","MEAN_MOTION":15.44673161,"ECCENTRICITY":0.00124078,"INCLINATION":64.9726,"RA_OF_ASC_NODE":288.3589,"ARG_OF_PERICENTER":265.3726,"MEAN_ANOMALY":94.5997,"EPHEMERIS_TYPE":0,"CLASSIFICATION_TYPE":"U","NORAD_CAT_ID":39574,"ELEMENT_SET_NO":999,"REV_AT_EPOCH":68212,"BSTAR":0.00021745789,"MEAN_MOTION_DOT":9.981e-5,"MEAN_MOTION_DDOT":0},{"OBJECT_NAME":"MMS 1","OBJECT_ID":"2015-011A","EPOCH":"2026-03-07T16:00:01.999584","MEAN_MOTION":0.28288532,"ECCENTRICITY":0.84135168,"INCLINATION":70.8039,"RA_OF_ASC_NODE":350.1874,"ARG_OF_PERICENTER":165.3182,"MEAN_ANOMALY":23.3942,"EPHEMERIS_TYPE":0,"CLASSIFICATION_TYPE":"U","NORAD_CAT_ID":40482,"ELEMENT_SET_NO":999,"REV_AT_EPOCH":134,"BSTAR":0,"MEAN_MOTION_DOT":-1.96e-5,"MEAN_MOTION_DDOT":0},{"OBJECT_NAME":"MMS 2","OBJECT_ID":"2015-011B","EPOCH":"2026-03-07T16:00:01.999584","MEAN_MOTION":0.28284467,"ECCENTRICITY":0.84144421,"INCLINATION":70.8045,"RA_OF_ASC_NODE":350.1889,"ARG_OF_PERICENTER":165.326,"MEAN_ANOMALY":23.3722,"EPHEMERIS_TYPE":0,"CLASSIFICATION_TYPE":"U","NORAD_CAT_ID":40483,"ELEMENT_SET_NO":999,"REV_AT_EPOCH":134,"BSTAR":0,"MEAN_MOTION_DOT":-1.961e-5,"MEAN_MOTION_DDOT":0},{"OBJECT_NAME":"MMS 3","OBJECT_ID":"2015-011C","EPOCH":"2026-03-07T16:00:01.999584","MEAN_MOTION":0.28288468,"ECCENTRICITY":0.84135318,"INCLINATION":70.8065,"RA_OF_ASC_NODE":350.1942,"ARG_OF_PERICENTER":165.3184,"MEAN_ANOMALY":23.3861,"EPHEMERIS_TYPE":0,"CLASSIFICATION_TYPE":"U","NORAD_CAT_ID":40484,"ELEMENT_SET_NO":999,"REV_AT_EPOCH":134,"BSTAR":0,"MEAN_MOTION_DOT":-1.96e-5,"MEAN_MOTION_DDOT":0},{"OBJECT_NAME":"MMS 4","OBJECT_ID":"2015-011D","EPOCH":"2026-03-07T16:00:01.999584","MEAN_MOTION":0.2828438,"ECCENTRICITY":0.84132295,"INCLINATION":70.8049,"RA_OF_ASC_NODE":350.1888,"ARG_OF_PERICENTER":165.3275,"MEAN_ANOMALY":23.3661,"EPHEMERIS_TYPE":0,"CLASSIFICATION_TYPE":"U","NORAD_CAT_ID":40485,"ELEMENT_SET_NO":999,"REV_AT_EPOCH":134,"BSTAR":0,"MEAN_MOTION_DOT":-1.96e-5,"MEAN_MOTION_DDOT":0},{"OBJECT_NAME":"TDRS 13","OBJECT_ID":"2017-047A","EPOCH":"2026-03-07T07:01:07.648896","MEAN_MOTION":1.00272357,"ECCENTRICITY":0.0010548,"INCLINATION":3.43,"RA_OF_ASC_NODE":0.1345,"ARG_OF_PERICENTER":98.6431,"MEAN_ANOMALY":160.0313,"EPHEMERIS_TYPE":0,"CLASSIFICATION_TYPE":"U","NORAD_CAT_ID":42915,"ELEMENT_SET_NO":999,"REV_AT_EPOCH":3132,"BSTAR":0,"MEAN_MOTION_DOT":-1.01e-6,"MEAN_MOTION_DDOT":0},{"OBJECT_NAME":"NOAA 20 (JPSS-1)","OBJECT_ID":"2017-073A","EPOCH":"2026-03-07T13:44:55.870368","MEAN_MOTION":14.19535495,"ECCENTRICITY":0.00011298,"INCLINATION":98.769,"RA_OF_ASC_NODE":6.9811,"ARG_OF_PERICENTER":140.6553,"MEAN_ANOMALY":219.4706,"EPHEMERIS_TYPE":0,"CLASSIFICATION_TYPE":"U","NORAD_CAT_ID":43013,"ELEMENT_SET_NO":999,"REV_AT_EPOCH":43005,"BSTAR":8.9000721e-5,"MEAN_MOTION_DOT":1.44e-6,"MEAN_MOTION_DDOT":0}]
